NORAD_CAT_ID,OBJECT_NAME,OBJECT_TYPE,EPOCH,MEAN_MOTION,ECCENTRICITY,INCLINATION,RA_OF_ASC_NODE,ARG_OF_PERICENTER,MEAN_ANOMALY,BSTAR,MEAN_MOTION_DOT,MEAN_MOTION_DDOT,TLE_LINE0,TLE_LINE1,TLE_LINE2,SEMIMAJOR_AXIS,PERIOD,APOGEE,PERIGEE,DECAYED
52705.0,STARLINK-3844,PAYLOAD,2023-09-09 08:29:31,15.08836793,0.0001444,53.2158,269.7575,81.8016,278.314,3.8478e-05,3.24e-06,0.0,0 STARLINK-3844,1 52705U 22053BB  23252.35384027  .00000324  00000-0  38478-4 0  9990,2 52705  53.2158 269.7575 0001444  81.8016 278.3140 15.08836793 73581,6917.89,95.438,540.754,538.756,0.0
52705.0,STARLINK-3844,PAYLOAD,2023-09-10 09:55:41,15.08843194,0.0001493,53.216,265.0003,90.3714,269.7449,6.7139e-05,7.81e-06,0.0,0 STARLINK-3844,1 52705U 22053BB  23253.41367750  .00000781  00000-0  67139-4 0  9995,2 52705  53.2160 265.0003 0001493  90.3714 269.7449 15.08843194 73313,6917.871,95.437,540.768,538.703,0.0
52705.0,STARLINK-3844,PAYLOAD,2023-09-11 08:11:06,15.08837415,0.0001472,53.216,260.8369,90.5802,269.5358,3.7416e-05,3.08e-06,0.0,0 STARLINK-3844,1 52705U 22053BB  23254.34104365  .00000308  00000-0  37416-4 0  9999,2 52705  53.2160 260.8369 0001472  90.5802 269.5358 15.08837415 73459,6917.888,95.438,540.772,538.735,0.0
52705.0,STARLINK-3844,PAYLOAD,2023-09-11 12:57:15,15.08840552,0.0001457,53.2157,259.9445,90.3485,269.7674,5.3423e-05,5.62e-06,0.0,0 STARLINK-3844,1 52705U 22053BB  23254.53976126  .00000562  00000-0  53423-4 0  9990,2 52705  53.2157 259.9445 0001457  90.3485 269.7674 15.08840552 73917,6917.879,95.438,540.752,538.736,0.0
52705.0,STARLINK-3844,PAYLOAD,2023-09-12 08:01:52,15.08846632,0.0001463,53.2156,256.3749,90.277,269.839,5.8664e-05,6.46e-06,0.0,0 STARLINK-3844,1 52705U 22053BB  23255.33463722  .00000646  00000-0  58664-4 0  9997,2 52705  53.2156 256.3749 0001463  90.2770 269.8390 15.08846632 73604,6917.86,95.437,540.737,538.713,0.0
52705.0,STARLINK-3844,PAYLOAD,2023-09-12 17:34:11,15.08844282,0.0001411,53.2154,254.5913,90.511,269.6044,4.9761e-05,5.04e-06,0.0,0 STARLINK-3844,1 52705U 22053BB  23255.73207820  .00000504  00000-0  49761-4 0  9997,2 52705  53.2154 254.5913 0001411  90.5110 269.6044 15.08844282 74096,6917.867,95.437,540.708,538.756,0.0
52705.0,STARLINK-3844,PAYLOAD,2023-09-13 06:17:16,15.08846264,0.000142,53.2154,252.2116,98.0686,262.0467,7.5271e-05,9.1e-06,0.0,0 STARLINK-3844,1 52705U 22053BB  23256.26199581  .00000910  00000-0  75271-4 0  9996,2 52705  53.2154 252.2116 0001420  98.0686 262.0467 15.08846264 74174,6917.861,95.437,540.709,538.744,0.0
52705.0,STARLINK-3844,PAYLOAD,2023-09-13 17:24:59,15.08836788,0.0001411,53.2147,250.1297,94.6308,265.4845,6.184e-06,-1.9e-06,0.0,0 STARLINK-3844,1 52705U 22053BB  23256.72568340 -.00000190  00000-0  61840-5 0  9999,2 52705  53.2147 250.1297 0001411  94.6308 265.4845 15.08836788 73813,6917.89,95.438,540.731,538.779,0.0
52705.0,STARLINK-3844,PAYLOAD,2023-09-14 02:57:18,15.08830186,0.0001529,53.215,248.3454,97.0664,263.0502,-6.1778e-05,-1.271e-05,0.0,0 STARLINK-3844,1 52705U 22053BB  23257.12313131 -.00001271  00000-0 -61778-4 0  9991,2 52705  53.2150 248.3454 0001529  97.0664 263.0502 15.08830186 73879,6917.91,95.438,540.833,538.718,0.0
52705.0,STARLINK-3844,PAYLOAD,2023-09-14 06:08:04,15.08831247,0.0001476,53.2152,247.7513,94.6522,265.4638,-6.9372e-05,-1.392e-05,0.0,0 STARLINK-3844,1 52705U 22053BB  23257.25561146 -.00001392  00000-0 -69372-4 0  9998,2 52705  53.2152 247.7513 0001476  94.6522 265.4638 15.08831247 74323,6917.907,95.438,540.793,538.751,0.0
52705.0,STARLINK-3844,PAYLOAD,2023-09-15 02:48:04,15.08842985,0.0001588,53.2159,243.8844,101.63,258.487,2.5569e-05,1.19e-06,0.0,0 STARLINK-3844,1 52705U 22053BB  23258.11672270  .00000119  00000-0  25569-4 0  9999,2 52705  53.2159 243.8844 0001588 101.6300 258.4870 15.08842985 74029,6917.871,95.437,540.835,538.638,0.0
52705.0,STARLINK-3844,PAYLOAD,2023-09-15 05:58:51,15.08846613,0.000164,53.2171,243.2916,97.1069,263.011,1.02e-05,-1.26e-06,0.0,0 STARLINK-3844,1 52705U 22053BB  23258.24920202 -.00000126  00000-0  10200-4 0  9999,2 52705  53.2171 243.2916 0001640  97.1069 263.0110 15.08846613 74477,6917.86,95.437,540.86,538.591,0.0
52705.0,STARLINK-3844,PAYLOAD,2023-09-15 23:28:06,15.08831104,0.0001588,53.2166,240.0206,91.1707,268.9467,9.224e-05,1.18e-05,0.0,0 STARLINK-3844,1 52705U 22053BB  23258.97784985  .00001180  00000-0  92240-4 0  9999,2 52705  53.2166 240.0206 0001588  91.1707 268.9467 15.08831104 74155,6917.908,95.438,540.871,538.674,0.0
52705.0,STARLINK-3844,PAYLOAD,2023-09-16 09:00:24,15.08838959,0.0001581,53.2167,238.2371,94.0339,266.0834,0.00014115,1.959e-05,0.0,0 STARLINK-3844,1 52705U 22053BB  23259.37528489  .00001959  00000-0  14115-3 0  9997,2 52705  53.2167 238.2371 0001581  94.0339 266.0834 15.08838959 74213,6917.884,95.438,540.842,538.655,0.0
52705.0,STARLINK-3844,PAYLOAD,2023-09-16 15:21:57,15.08832013,0.0001604,53.2168,237.0488,86.5091,273.6085,9.3301e-05,1.197e-05,0.0,0 STARLINK-3844,1 52705U 22053BB  23259.64025228  .00001197  00000-0  93301-4 0  9999,2 52705  53.2168 237.0488 0001604  86.5091 273.6085 15.08832013 74258,6917.905,95.438,540.879,538.66,0.0
52705.0,STARLINK-3844,PAYLOAD,2023-09-17 04:05:03,15.08834904,0.000164,53.2171,234.6704,99.6066,260.5111,-4.4819e-05,-1.001e-05,0.0,0 STARLINK-3844,1 52705U 22053BB  23260.17017630 -.00001001  00000-0 -44819-4 0  9993,2 52705  53.2171 234.6704 0001640  99.6066 260.5111 15.08834904 74765,6917.896,95.438,540.896,538.626,0.0
52705.0,STARLINK-3844,PAYLOAD,2023-09-18 02:20:26,15.08832729,0.0001542,53.2165,230.5052,92.8835,267.2334,0.00016049,2.267e-05,0.0,0 STARLINK-3844,1 52705U 22053BB  23261.09753358  .00002267  00000-0  16049-3 0  9995,2 52705  53.2165 230.5052 0001542  92.8835 267.2334 15.08832729 74471,6917.903,95.438,540.834,538.701,0.0
52705.0,STARLINK-3844,PAYLOAD,2023-09-18 05:31:12,15.08845053,0.0001539,53.2165,229.9105,91.8243,268.2925,5.0905e-05,5.22e-06,0.0,0 STARLINK-3844,1 52705U 22053BB  23261.23000831  .00000522  00000-0  50905-4 0  9994,2 52705  53.2165 229.9105 0001539  91.8243 268.2925 15.08845053 74493,6917.865,95.437,540.795,538.665,0.0
52705.0,STARLINK-3844,PAYLOAD,2023-09-18 10:17:23,15.08791111,0.0001867,53.2165,229.0181,88.866,271.2546,0.00091135,0.00014227,0.0,0 STARLINK-3844,1 52705U 22053BB  23261.42874216  .00014227  00000-0  91135-3 0  9997,2 52705  53.2165 229.0181 0001867  88.8660 271.2546 15.08791111 74950,6918.03,95.441,541.186,538.603,0.0
52705.0,STARLINK-3844,PAYLOAD,2023-09-19 02:11:13,15.08837235,0.0001623,53.2171,226.0426,88.7615,271.3563,0.00010412,1.369e-05,0.0,0 STARLINK-3844,1 52705U 22053BB  23262.09113074  .00001369  00000-0  10412-3 0  9991,2 52705  53.2171 226.0426 0001623  88.7615 271.3563 15.08837235 74627,6917.889,95.438,540.877,538.631,0.0
52705.0,STARLINK-3844,PAYLOAD,2023-09-19 05:21:59,15.08848716,0.0001519,53.2163,225.4499,96.3121,263.8044,0.00014708,2.054e-05,0.0,0 STARLINK-3844,1 52705U 22053BB  23262.22360229  .00002054  00000-0  14708-3 0  9996,2 52705  53.2163 225.4499 0001519  96.3121 263.8044 15.08848716 74640,6917.854,95.437,540.77,538.668,0.0
52705.0,STARLINK-3844,PAYLOAD,2023-09-20 02:02:00,15.08837886,0.0001528,53.2169,221.5838,95.1238,264.9929,1.4269e-05,-6.1e-07,0.0,0 STARLINK-3844,1 52705U 22053BB  23263.08473350 -.00000061  00000-0  14269-4 0  9991,2 52705  53.2169 221.5838 0001528  95.1238 264.9929 15.08837886 74770,6917.887,95.438,540.809,538.695,0.0
52705.0,STARLINK-3844,PAYLOAD,2023-09-20 06:48:10,15.08843718,0.0001467,53.2162,220.6894,96.608,263.5079,1.962e-05,2.4e-07,0.0,0 STARLINK-3844,1 52705U 22053BB  23263.28344920  .00000024  00000-0  19620-4 0  9997,2 52705  53.2162 220.6894 0001467  96.6080 263.5079 15.08843718 75232,6917.869,95.437,540.749,538.719,0.0
52705.0,STARLINK-3844,PAYLOAD,2023-09-20 14:45:06,15.08831452,0.0001702,53.2183,219.198,100.5365,259.5819,-8.6316e-05,-1.661e-05,0.0,0 STARLINK-3844,1 52705U 22053BB  23263.61465944 -.00001661  00000-0 -86316-4 0  9990,2 52705  53.2183 219.1980 0001702 100.5365 259.5819 15.08831452 74853,6917.907,95.438,540.949,538.594,0.0
52705.0,STARLINK-3844,PAYLOAD,2023-09-21 03:28:11,15.08839288,0.0001446,53.2164,216.8241,98.3344,261.7812,-9.4216e-05,-1.787e-05,0.0,0 STARLINK-3844,1 52705U 22053BB  23264.14457841 -.00001787  00000-0 -94216-4 0  9993,2 52705  53.2164 216.8241 0001446  98.3344 261.7812 15.08839288 74934,6917.883,95.438,540.748,538.747,0.0
52705.0,STARLINK-3844,PAYLOAD,2023-09-22 03:18:58,15.08842451,0.0001479,53.2166,212.3643,106.9485,253.1669,0.00013195,1.813e-05,0.0,0 STARLINK-3844,1 52705U 22053BB  23265.13817293  .00001813  00000-0  13195-3 0  9998,2 52705  53.2166 212.3643 0001479 106.9485 253.1669 15.08842451 75089,6917.873,95.437,540.761,538.715,0.0
52705.0,STARLINK-3844,PAYLOAD,2023-09-22 20:48:13,15.08837536,0.0001508,53.2172,209.0928,102.8776,257.2385,0.00014102,1.957e-05,0.0,0 STARLINK-3844,1 52705U 22053BB  23265.86681744  .00001957  00000-0  14102-3 0  9996,2 52705  53.2172 209.0928 0001508 102.8776 257.2385 15.08837536 75624,6917.888,95.438,540.796,538.71,0.0
52705.0,STARLINK-3844,PAYLOAD,2023-09-23 03:09:45,15.08843199,0.000141,53.2172,207.9084,105.9428,254.172,0.00016557,2.348e-05,0.0,0 STARLINK-3844,1 52705U 22053BB  23266.13177342  .00002348  00000-0  16557-3 0  9992,2 52705  53.2172 207.9084 0001410 105.9428 254.1720 15.08843199 75669,6917.871,95.437,540.711,538.76,0.0
52705.0,STARLINK-3844,PAYLOAD,2023-09-23 19:03:37,15.08844081,0.0001361,53.2173,204.935,102.2915,257.8229,-3.1428e-05,-7.88e-06,0.0,0 STARLINK-3844,1 52705U 22053BB  23266.79417870 -.00000788  00000-0 -31428-4 0  9990,2 52705  53.2173 204.9350 0001361 102.2915 257.8229 15.08844081 75338,6917.868,95.437,540.674,538.791,0.0
52705.0,STARLINK-3844,PAYLOAD,2023-09-24 04:35:55,15.08852035,0.0001253,53.2169,203.1469,99.0502,261.0632,2.8608e-05,1.68e-06,0.0,0 STARLINK-3844,1 52705U 22053BB  23267.19161015  .00000168  00000-0  28608-4 0  9998,2 52705  53.2169 203.1469 0001253  99.0502 261.0632 15.08852035 75399,6917.844,95.437,540.575,538.842,0.0
